{"type":"FeatureCollection","crs":{"type":"name","properties":{"name":"urn:ogc:def:crs:OGC:1.3:CRS84"}}, "features": [
{"type":"Feature","geometry":{"type":"Polygon","coordinates":[[[5.94678826794805,46.12844911113302],[5.975445241940969,46.18259697006158],[5.953718295748345,46.19725784692996],[5.967745770092314,46.22223596906988],[6.031085262390295,46.24821839854981],[6.090088906246301,46.25687517553089],[6.092632780312743,46.28602618577001],[6.108786723353679,46.303023181738766],[6.129180659062685,46.343367293728086],[6.14802654746337,46.35586086891934],[6.144102326630908,46.369182445107654],[6.091742556345633,46.400135268046284],[6.055509747394814,46.410889746549],[6.071966805327062,46.44283011295223],[6.065808428456272,46.47259391494608],[6.089631869986652,46.48839255645722],[6.105924508009447,46.51701358497228],[6.140014069160034,46.54442903528847],[6.104930382119236,46.5681907187523],[6.10092888083071,46.57928600817497],[6.11957937825955,46.597146289705044],[6.220291432012706,46.65565877280901],[6.279549121983773,46.70073457160027],[6.344749551386527,46.72327784944411],[6.398031614841951,46.76036420923068],[6.425548204350069,46.76551360255905],[6.444251746167984,46.78493194569745],[6.426158689486765,46.79623165266244],[6.421736620783691,46.81523763618119],[6.450688132362129,46.85589000133009],[6.454241821226834,46.88787322911934],[6.428323200547557,46.91506674041503],[6.429209619650195,46.93807175018804],[6.452553931441986,46.95069903650475],[6.49413570482882,46.983825329036144],[6.507443648388235,46.977242986582475],[6.633617465861938,47.01026654535694],[6.655046183331769,47.03639368669636],[6.696906047625883,47.04990222042998],[6.682954923898528,47.06149719212884],[6.695712911661261,47.089269453579924],[6.724757587956382,47.10203537460828],[6.733061263507586,47.1162501967423],[6.798587362384183,47.13921550417727],[6.83463986496987,47.16194378076136],[6.83918177033329,47.181534696639936],[6.874883238363172,47.20881795015492],[6.933518744318581,47.24078081189556],[6.940384635795104,47.268749792038484],[6.933309024349003,47.29296852431188],[6.944225404593224,47.30033117868327],[6.993504588713152,47.306106386029626],[7.008650958813194,47.33442600559123],[7.043595698542442,47.339945596557605],[7.025554476331032,47.35951509115415],[6.97548434946249,47.350166900590445],[6.878869595668199,47.342590016106925],[6.869757444771778,47.34967362950023],[6.874903166071341,47.3777830460274],[6.90845966404247,47.41340141372164],[6.931413656092814,47.415727608244154],[6.930915298454732,47.43685536287989],[6.981265534894308,47.45921387416976],[6.975135925340442,47.500769360286824],[7.020365006724314,47.51438629054962],[7.078840389953179,47.49965445515131],[7.143125841066963,47.5109762937786],[7.16921051397008,47.499529444303164],[7.202165725503987,47.504210937821135],[7.185783437903183,47.45080481872397],[7.239254102185705,47.44672355383003],[7.252268692676147,47.4339854490399],[7.299445428311867,47.44806243261863],[7.34046187656525,47.45098204434783],[7.385100402232734,47.442534254079725],[7.411332877383866,47.45215989694441],[7.423089429196688,47.466692056439385],[7.413706976136871,47.48900284762167],[7.428623026545363,47.506089104675645],[7.484052846765741,47.49170048614397],[7.498975239121689,47.50396063802544],[7.488382993744174,47.53354967621817],[7.499408726585786,47.55234721264136],[7.54652176019763,47.572030187613265],[7.591369293761558,47.599621549033635],[7.622522022654803,47.58973579619771],[7.644626819434233,47.606900681823],[7.668828578567714,47.601952644202726],[7.692344510753641,47.60956051164697],[7.700852128750125,47.59324891233609],[7.688694132741154,47.556002966435734],[7.748504818732307,47.55410044479099],[7.789919192312644,47.56608718528091],[7.809619142455793,47.591614613241724],[7.883922692149867,47.598886459688046],[7.909246991037488,47.588384318904524],[7.918372949054945,47.55876067126047],[7.950904293760843,47.565613274938755],[8.001174580446541,47.56635567829782],[8.017718777503353,47.56076881976558],[8.057992188109722,47.57352960407003],[8.091932484844058,47.569672097054685],[8.100498230743497,47.58823786605287],[8.16185881441645,47.60388276060246],[8.191030430822723,47.62659127646416],[8.28968099487403,47.62040065112217],[8.305686385496355,47.59568970725187],[8.333427499666406,47.5805233960113],[8.379698365492615,47.57704626723791],[8.396933166620371,47.58717117766055],[8.431920393517588,47.57664238379517],[8.453030693537041,47.58193616609394],[8.449066283287706,47.60881632380887],[8.477102111545356,47.62500789475239],[8.395604111874695,47.67494776579387],[8.395428177844808,47.70196359246161],[8.41158262987323,47.718521471761726],[8.441221165872028,47.732088455231285],[8.452075621459304,47.75866476071954],[8.484283306804052,47.78203530721357],[8.552147292031032,47.79459366650499],[8.56422469753569,47.81771921614128],[8.61654774114949,47.810876515669285],[8.63797652111146,47.79920201630665],[8.660798248912227,47.809640218169484],[8.689328305019568,47.79217582465922],[8.698585362319838,47.77423790546165],[8.731733446009823,47.7712452503141],[8.750950638432421,47.75382647051271],[8.724159409687523,47.73181614257501],[8.759450169408446,47.708067431832525],[8.764572298044058,47.72743269916457],[8.795299162054716,47.74523926628298],[8.822024464407287,47.72877510922114],[8.880577987687056,47.71024355061597],[8.873866151151411,47.6838322922929],[8.89801893258726,47.65795671370543],[8.937803341261837,47.665642839814566],[8.981695530252054,47.68496529488715],[9.028044931697409,47.69623925151607],[9.108031341616277,47.685300453022506],[9.173473217786087,47.66556860189723],[9.258176284231943,47.66884048007531],[9.448400040075379,47.604279721878136],[9.518699837077573,47.5466673958114],[9.560025259794658,47.54041952554049],[9.571690019968402,47.5005183045592],[9.59865971298049,47.47558870472449],[9.663674084391895,47.46125790972425],[9.655536254883202,47.43375063151569],[9.66166726661155,47.411085104414454],[9.682766090002536,47.395301599556305],[9.676809983158545,47.369887078049715],[9.655462140213512,47.35820832417476],[9.626577633566221,47.355130056515414],[9.608196094470726,47.34010479520816],[9.587397902058363,47.30303084845134],[9.563527432902292,47.29108678730212],[9.540306675562254,47.265443867100835],[9.512552363280925,47.21899184890107],[9.496061850310499,47.18166842756542],[9.517400992732176,47.144606889672545],[9.528545552529144,47.107972846506726],[9.522274480429525,47.08016346444403],[9.562552326204333,47.060638703852554],[9.60282799174455,47.071753641121795],[9.680400326689144,47.07219673732502],[9.717974812166238,47.054801988494376],[9.753238749134615,47.04712818615906],[9.788840856404837,47.04748605843326],[9.836391021478075,47.023912399160565],[9.855618337039592,47.03231866810387],[9.886612670534506,47.02648463247003],[9.902223241770987,46.99162644046498],[9.886038260868764,46.96814039664461],[9.89033022257968,46.94211070999156],[9.93935775187553,46.923177697689255],[9.977119419274464,46.925870170581504],[9.993992445617883,46.912347819281884],[10.017963672869234,46.91162022849979],[10.05920725435582,46.88321605849922],[10.091091902053254,46.87041294047513],[10.109313980018,46.85167749389027],[10.17479150617902,46.86375526770191],[10.192786771637385,46.876404214521344],[10.223646088486538,46.88088440739116],[10.231199563035297,46.934770003850026],[10.242520153538601,46.94159362773666],[10.298100493243048,46.93419602637298],[10.298852615840394,46.951668309577386],[10.320665413035552,46.968947041857035],[10.340071394067532,46.99693828674247],[10.382315819009662,47.009709352197746],[10.404578156133573,47.00491625213656],[10.458779337835717,46.962250109110634],[10.499340086628036,46.93826852375546],[10.494834686019365,46.91040133692581],[10.478730372199923,46.883727070619216],[10.481789749607778,46.84911341406015],[10.466660436292155,46.811865255539246],[10.442390929959034,46.78823856814466],[10.45416337095165,46.75860933630854],[10.42812057764244,46.7225402544615],[10.421161235346476,46.70046488924752],[10.398460829612203,46.68076096115003],[10.41046246128031,46.645659764507805],[10.450202497873416,46.65040819423734],[10.502065574279646,46.61361873898252],[10.496549362792036,46.58478062870639],[10.477892035803674,46.535285430793124],[10.450815701950003,46.520905769323406],[10.415605540024274,46.54067445800086],[10.400007671764842,46.53437101599317],[10.359242614378863,46.545602832544375],[10.345092840992255,46.53426160956177],[10.29143385309459,46.54111229394233],[10.280271495930089,46.561375300321856],[10.239471222857976,46.56743595100186],[10.217212298446436,46.607131798017775],[10.188117241324003,46.615108861821106],[10.128419000177068,46.59511290234588],[10.062320562539721,46.53565094821973],[10.056281444301854,46.48143068547327],[10.068094458407364,46.4370602421056],[10.095918965044014,46.4321562508778],[10.128455877632991,46.44172137341148],[10.149374922340908,46.43617576166273],[10.175594512795108,46.41229654355334],[10.169240657871597,46.380629858810686],[10.138172331903801,46.371854271374836],[10.137213043084042,46.35501950073411],[10.11890265537739,46.34456773910673],[10.123873589205067,46.322171853894176],[10.156595778373823,46.30322163582193],[10.186234417135807,46.260578545983954],[10.180195215234813,46.24612228282608],[10.149235171747351,46.22066215430723],[10.124107291463028,46.21382693757724],[10.08630422849683,46.216770351242225],[10.06481832288359,46.208214246401646],[10.033977772682213,46.23047191336092],[10.048201783199545,46.25107352054119],[10.027980855162843,46.26725900931785],[9.989153866811565,46.277568256646134],[9.98638288933758,46.30794086533615],[9.971475319262666,46.319616323733484],[9.980609104109021,46.34276352019165],[9.947588058293181,46.36779057890906],[9.921369922910698,46.35674405715122],[9.9052217027461,46.36897594461564],[9.869521992340344,46.35243099900145],[9.837712028046898,46.35092339482567],[9.778034402689393,46.32499206365197],[9.73979977938371,46.34012538175951],[9.733029573594733,46.304642853131035],[9.722493163846469,46.28689949204759],[9.702560115468211,46.28107753987362],[9.675882495425485,46.28884209187674],[9.635821765816846,46.27606647168586],[9.54281101448796,46.2944142805167],[9.510936143547717,46.320569103385395],[9.489739105041927,46.35590534791985],[9.451368424852744,46.37395441100929],[9.456475825442691,46.3957813532447],[9.444813010482658,46.423818102944104],[9.449694800424867,46.46616578861054],[9.393635774114044,46.460586113149276],[9.349246893320283,46.49522822537617],[9.288997575467382,46.48725415120753],[9.286656982478856,46.45640082253071],[9.258721385858143,46.43738878235789],[9.287889369548097,46.420721073590265],[9.30818468020816,46.321742396605124],[9.294631678791903,46.29497852578172],[9.269069207420072,46.27169481013155],[9.258129956717285,46.23070196928559],[9.232567475453061,46.22186145997905],[9.20998715194375,46.20033032405614],[9.201865604099345,46.17211595946811],[9.185352340808278,46.16001565477916],[9.141164968669269,46.14436592318811],[9.124050560534554,46.12501499819253],[9.087543654153214,46.11314518088137],[9.097375504246187,46.07977227105308],[9.08528890516468,46.058156564321564],[9.027144112814026,46.04266657184133],[9.035608968808454,45.98670796146876],[9.022754830750657,45.96538994193019],[9.032438402566507,45.936777490983715],[9.078671852381438,45.92144275063018],[9.098717000706904,45.903421435016355],[9.096926783213624,45.89109716650406],[9.047554982560072,45.83751429099735],[9.043960599027907,45.81965436058643],[9.015443021052906,45.80813114415634],[8.992380296265745,45.81216779388524],[8.949339343438558,45.83308122967115],[8.93225782003762,45.823942903301216],[8.903161178609555,45.82627121291912],[8.906827528660614,45.84893832023778],[8.924325515439067,45.86696229067227],[8.913693038501945,45.90138621478349],[8.883414912090949,45.92900398388514],[8.886863555086657,45.94756169208205],[8.86220807898216,45.95277719339652],[8.832315319419697,45.97539214427188],[8.775985918936762,45.988021634628836],[8.783679845442384,46.01155352468253],[8.821040535242584,46.0520188613304],[8.844230281991706,46.06635127278447],[8.808430190427178,46.08939809995704],[8.779461857281708,46.08474918694943],[8.750015841538016,46.09622870421507],[8.740201660193755,46.108861919592684],[8.712851765726372,46.088237448101516],[8.681583020688135,46.093138364818664],[8.64353312229664,46.11344450573188],[8.61021903130489,46.11193011205296],[8.583516107195127,46.148820555130925],[8.53241813112503,46.19206720570169],[8.523765571420522,46.21081906564479],[8.465031575722582,46.22376273653774],[8.436852291796688,46.24281496484862],[8.441584521501236,46.26821503266581],[8.41848019546141,46.29456400365142],[8.4367466924595,46.32666738380819],[8.453644825171942,46.33696683983866],[8.451838011940252,46.44404508119288],[8.443078286129866,46.45313679262828],[8.395431171992735,46.441847053121435],[8.3728589174203,46.442675130334095],[8.32861854116803,46.415587459054514],[8.328573184436735,46.386850697858826],[8.317686153331946,46.368459132112065],[8.270966884583911,46.340289540568676],[8.234689019458738,46.328315933453716],[8.216605158105505,46.30077213913743],[8.160351945253794,46.28608809933391],[8.141168397582563,46.29204517764437],[8.117674890406105,46.27194051786263],[8.11456365924924,46.25848694235651],[8.14705217550913,46.23191957806486],[8.174674128545055,46.173588504164805],[8.14999968510706,46.128497813021134],[8.125167207473456,46.12337806436493],[8.112449774968143,46.102564138577605],[8.042441015191356,46.08998573228945],[8.032929899367426,46.071211545790256],[8.041618241959863,46.03680561435173],[8.02623962473321,46.0295047846255],[8.019818831617698,46.005285607513116],[7.992357530350668,45.986700871311875],[7.914057988764612,45.98648882215246],[7.890701712304517,45.967196627758184],[7.886945508177541,45.92580583682326],[7.865849911534704,45.90696536274496],[7.821604024303742,45.916567209919656],[7.802438355909715,45.907544814467904],[7.764492352156439,45.92757361908196],[7.739678088722865,45.915132795791926],[7.715762890668227,45.91457300549192],[7.661186170945482,45.96550846332885],[7.637313554192264,45.960162107048184],[7.586885508177849,45.960926855944805],[7.571443208872675,45.9774286493179],[7.541463286630713,45.945370856550156],[7.502178824700979,45.94946877581242],[7.48168920423449,45.9288196266392],[7.449409884830461,45.921628905055734],[7.424732741569363,45.90302724528065],[7.384757642157419,45.886670089739354],[7.343153190131038,45.904342720575805],[7.325465838734907,45.90026260595829],[7.295334183181233,45.90964725550686],[7.261336146938173,45.87932544236212],[7.224761214994541,45.87993108079861],[7.200958589208018,45.85136789256469],[7.170032895077982,45.85442469006275],[7.152581055864847,45.867763002863974],[7.120165101233208,45.84938783914152],[7.097337254623689,45.85010588968154],[7.082558554205699,45.87269286758597],[7.037204980646818,45.91544911737529],[7.027613683321269,45.94738383902645],[6.998549175401792,45.96864678601331],[7.001712061379577,45.98903149885201],[6.980119708143988,45.99565129918692],[6.971840183609136,46.01329451286038],[6.929744608837711,46.04725906918823],[6.887905776387687,46.03212945914447],[6.871062425295458,46.03872928645062],[6.863718111706556,46.05872806140974],[6.879012298517912,46.083794751814594],[6.882311552991424,46.11294230391348],[6.791411977342654,46.128669444213976],[6.780303869243302,46.15458623007116],[6.800127392974067,46.18561023141098],[6.795218582246061,46.209930373978736],[6.849662436981746,46.26854400310614],[6.846679279543845,46.27991261669618],[6.818389247082933,46.30353606252182],[6.793740047114659,46.31210715890767],[6.763772085516892,46.34500803018585],[6.763341498156534,46.36676179298181],[6.792749132203421,46.38196115655943],[6.806450124700082,46.41982112693393],[6.680848507034716,46.44434889135208],[6.521139949102857,46.44634660127964],[6.429618125981569,46.40663794389164],[6.338294118352501,46.39404516539015],[6.259814406680065,46.35272576878775],[6.235264223943499,46.317056179072814],[6.251962828876851,46.31171044666532],[6.262196235940588,46.28684210292393],[6.252021356070019,46.2771723774834],[6.27026894113596,46.25938781492052],[6.291110343915241,46.27385607023777],[6.318586760978609,46.260926797181284],[6.318249374798381,46.237922605295104],[6.281861042772311,46.206865274246],[6.236120639742895,46.195697956592134],[6.19742629865743,46.17343438004318],[6.194534799352608,46.15820496835241],[6.138491649795772,46.13180525855934],[6.057177452083731,46.14127348203001],[6.038700311796268,46.125354234675385],[5.993289530770968,46.133784178487986],[5.956317871781028,46.11860679405586],[5.94678826794805,46.12844911113302]]]},"properties":{"id":"relation/51701","@id":"relation/51701","ISO3166-1":"CH","ISO3166-1:alpha2":"CH","ISO3166-1:alpha3":"CHE","ISO3166-1:numeric":"756","TMC:cid_58:tabcd_1:Class":"Area","TMC:cid_58:tabcd_1:LCLversion":"8.00","TMC:cid_58:tabcd_1:LocationCode":"6","admin_level":"2","alt_name:cs":"Švýcarská konfederace","alt_name:eo":"Svislando;Svisio","alt_name:gsw":"Schwiz","boundary":"administrative","capital_city":"Bern","country_code_fips":"SZ","flag":"http://upload.wikimedia.org/wikipedia/commons/f/f3/Flag_of_Switzerland.svg","int_name":"Schweiz","land_area":"administrative","name":"Schweiz/Suisse/Svizzera/Svizra","name:ace":"Swiss","name:af":"Switserland","name:als":"Schweiz","name:am":"ስዊዘርላንድ","name:an":"Suiza","name:ang":"Sƿissland","name:ar":"سويسرا","name:arc":"ܣܘܝܣܪܐ","name:arz":"سويسرا","name:ast":"Suiza","name:az":"İsveçrə","name:ba":"Швейцария","name:bar":"Schweiz","name:bat-smg":"Šveicarėjė","name:bcl":"Suisa","name:be":"Швейцарыя","name:be-tarask":"Швейцарыя","name:bg":"Швейцария","name:bi":"Switzerland","name:bn":"Switzerland","name:bo":"སུད་སི།","name:bpy":"সুইজারল্যান্ড","name:br":"Suis","name:bs":"Švicarska","name:bug":"Swiss","name:bxr":"Швейцари","name:ca":"Suïssa","name:cdo":"Sô̤i-sê̤ṳ","name:ce":"Швейцари","name:ceb":"Swisa","name:chr":"ᏍᏫᏣᎳᏂ","name:chy":"Switzerland","name:ckb":"سویسرا","name:co":"Svizzera","name:crh":"İsviçre","name:cs":"Švýcarsko","name:csb":"Szwajcarskô","name:cu":"Свицєра","name:cv":"Швейцари","name:cy":"Y Swistir","name:da":"Schweiz","name:de":"Schweiz","name:diq":"İswiçre","name:dsb":"Šwicarska","name:dv":"ސުވިޒަލޭންޑު","name:dz":"སུའིཊ་ཛར་ལེན་","name:ee":"Switzerland","name:el":"Ελβετία","name:eml":"Svézzra","name:en":"Switzerland","name:eo":"Svisujo","name:es":"Suiza","name:et":"Šveits","name:eu":"Suitza","name:ext":"Suiça","name:fa":"سوئیس","name:fi":"Sveitsi","name:fiu-vro":"Sveits","name:fo":"Sveis","name:fr":"Suisse","name:frp":"Suisse","name:frr":"Swaits","name:fur":"Svuizare","name:fy":"Switserlân","name:ga":"An Eilbhéis","name:gag":"Şveyțariya","name:gd":"An Eilbheis","name:gl":"Suíza","name:gn":"Suisa","name:gsw":"Schwiiz","name:gu":"સ્વિત્ઝરલેન્ડ","name:gv":"Yn Elveeish","name:hak":"Shuì-sṳ","name:haw":"Kuikilani","name:he":"שוויץ","name:hi":"स्विट्ज़रलैंड","name:hif":"Switzerland","name:hr":"Švicarska","name:hsb":"Šwicarska","name:ht":"Swis","name:hu":"Svájc","name:hy":"Շվեյցարիա","name:ia":"Suissa","name:id":"Swiss","name:ie":"Svissia","name:ilo":"Switzerland","name:io":"Suisia","name:is":"Sviss","name:it":"Svizzera","name:ja":"スイス","name:jbo":"elvetias","name:jv":"Swiss","name:ka":"შვეიცარია","name:kaa":"Shveytsariya","name:kbd":"Шуэцарэ","name:kg":"Suisi","name:kk":"Швейцария","name:kl":"Schweizi","name:kn":"ಸ್ವಿಟ್ಜರ್ಲ್ಯಾಂಡ್","name:ko":"스위스","name:koi":"Швейцарму","name:krc":"Швейцария","name:ksh":"Shwäĳz","name:ku":"Swîsre","name:kv":"Швейцария","name:kw":"Swistir","name:ky":"Швейцария","name:la":"Helvetia","name:lad":"Suisa","name:lb":"Schwäiz","name:lez":"Швейцария","name:li":"Zweitserland","name:lij":"Svissëa","name:lmo":"Svìzzera","name:ln":"Swisi","name:lt":"Šveicarija","name:ltg":"Šveicareja","name:lv":"Šveice","name:lzh":"瑞士","name:mdf":"Швейцария","name:mg":"Soisa","name:mhr":"Швейцарий","name:mi":"Huiterangi","name:mk":"Швајцарија","name:ml":"സ്വിറ്റ്സര്ലാന്റ്","name:mn":"Швейцари","name:mr":"स्वित्झर्लंड","name:ms":"Switzerland","name:mt":"Żvizzera","name:my":"ဆွစ်ဇာလန်နိုင်ငံ","name:na":"Switzerland","name:nah":"Suiza","name:nan":"Sūi-se","name:nap":"Sguizzera","name:nds":"Swiez","name:nds-nl":"Zwitserlaand","name:ne":"स्विजरल्याण्ड","name:new":"स्विट्जरल्याण्ड","name:nl":"Zwitserland","name:nn":"Sveits","name:no":"Sveits","name:nov":"Suisia","name:nrm":"Suisse","name:nv":"Swis Bikéyah","name:oc":"Soïssa","name:or":"ସୁଇଜରଲ୍ୟାଣ୍ଡ","name:os":"Швейцари","name:pa":"ਸਵਿਟਜ਼ਰਲੈਂਡ","name:pag":"Switzerland","name:pam":"Suiza","name:pap":"Suisa","name:pcd":"Suisse","name:pdc":"Schweiz","name:pfl":"Schwaiz","name:pih":"Switsaland","name:pl":"Szwajcaria","name:pms":"Svìssera","name:pnb":"سویٹزرلینڈ","name:pnt":"Ελβετία","name:ps":"سويس","name:pt":"Suíça","name:qu":"Suwisa","name:rm":"Svizra","name:rmy":"Elveciya","name:ro":"Elveţia","name:roa-rup":"Shwaitsã","name:roa-tara":"Svizzere","name:ru":"Швейцария","name:rue":"Швайц","name:rw":"Ubusuwisi","name:sa":"स्विटजरलैंड","name:sah":"Швейцария","name:sc":"Isvìtzera","name:scn":"Svìzzira","name:sco":"Swisserland","name:se":"Šveica","name:sh":"Švajcarska","name:si":"ස්විට්සර්ලන්තය","name:sk":"Švajčiarsko","name:sl":"Švica","name:so":"Iswiizerlaan","name:sq":"Zvicra","name:sr":"Швајцарска","name:ss":"ISwizalandi","name:stq":"Swaits","name:su":"Suis","name:sv":"Schweiz","name:sw":"Uswisi","name:szl":"Szwajcaryjo","name:ta":"சுவிட்சர்லாந்து","name:te":"స్విట్జర్లాండ్","name:tet":"Suisa","name:tg":"Швейтсария","name:th":"ประเทศสวิตเซอร์แลนด์","name:tk":"Şweýsariýa","name:tl":"Suwisa","name:tok":"ma Suwasi","name:tpi":"Suwisalan","name:tr":"İsviçre","name:tt":"Швейцария","name:tzl":"Suiça","name:udm":"Швейцария","name:ug":"Shwétsariye","name:uk":"Швейцарія","name:ur":"سویٹزر لینڈ","name:uz":"Shveysariya","name:vec":"Svìzera","name:vep":"Šveicarii","name:vi":"Thụy Sĩ","name:vls":"Zwitserland","name:vo":"Jveizän","name:war":"Swiza","name:wo":"Suwis","name:wuu":"瑞士","name:xal":"Свисн Һазр","name:xmf":"შვეიცარია","name:yi":"שווייץ","name:yo":"Swítsàlandì","name:yue":"瑞士","name:za":"Nyeiqswq","name:zea":"Zwitserland","name:zh":"瑞士","name:zh_pinyin":"Ruìshì","official_name:ca":"Confederació Helvètica","official_name:cs":"Švýcarská konfederace","official_name:de":"Schweizerische Eidgenossenschaft","official_name:el":"Ελβετική Συνομοσπονδία","official_name:en":"Swiss Confederation","official_name:eo":"Svisa Konfederacio","official_name:fi":"Sveitsin valaliitto","official_name:fr":"Confédération suisse","official_name:id":"Konfederasi Swiss","official_name:it":"Confederazione Svizzera","official_name:ja":"スイス連邦","official_name:la":"Confoederatio Helvetica","official_name:lb":"Schwäizeresch Eidgenossenschaft","official_name:lt":"Šveicarijos Konfederacija","official_name:rm":"Confederaziun svizra","official_name:sk":"Švajčiarska konfederácia","official_name:sv":"Schweiziska edsförbundet","official_name:vi":"Liên bang Thụy Sĩ","old_name:eo":"Helvetio;Helvetujo","timezone":"Europe/Zurich","type":"boundary","website":"https://www.ch.ch/","wikidata":"Q39","wikipedia":"de:Schweiz"}}
]}
